start=new Date('2022-09-11T00:00:00.000Z').valueOf();
sats=[{"CLASSIFICATION_TYPE":"U","OBJECT_ID":"2022-086X","SITE":"AFETR","TLE_LINE2":"2 53263  53.2175 164.8293 0001078  73.0526  40.8181 15.49892359  1307","TIME_SYSTEM":"UTC","REF_FRAME":"TEME","ARG_OF_PERICENTER":"73.0526","GP_ID":"212271938","MEAN_MOTION_DDOT":"0.0000000000000","LAUNCH_DATE":"2022-07-24","INCLINATION":"53.2175","MEAN_MOTION_DOT":"-0.00013441","OBJECT_TYPE":"PAYLOAD","DECAY_DATE":null,"APOAPSIS":"417.775","ELEMENT_SET_NO":"999","FILE":"3567798","PERIAPSIS":"416.310","SEMIMAJOR_AXIS":"6795.178","EPOCH":"2022-09-10T22:00:00.999936","ECCENTRICITY":"0.00010780","RCS_SIZE":"LARGE","MEAN_ELEMENT_THEORY":"SGP4","EPHEMERIS_TYPE":"0","CENTER_NAME":"EARTH","REV_AT_EPOCH":"130","TLE_LINE1":"1 53263U 22086X   22253.91667824 -.00013441  00000-0 -22922-3 0  9999","BSTAR":"-0.00022922000000","PERIOD":"92.910","NORAD_CAT_ID":"53263","MEAN_MOTION":"15.49892359","OBJECT_NAME":"STARLINK-4130","RA_OF_ASC_NODE":"164.8293","COUNTRY_CODE":"US","MEAN_ANOMALY":"40.8181"},{"EPOCH":"2022-09-10T22:00:00.999936","SEMIMAJOR_AXIS":"6795.182","FILE":"3567798","PERIAPSIS":"416.322","EPHEMERIS_TYPE":"0","ECCENTRICITY":"0.00010680","RCS_SIZE":"LARGE","MEAN_ELEMENT_THEORY":"SGP4","NORAD_CAT_ID":"53264","REV_AT_EPOCH":"130","TLE_LINE1":"1 53264U 22086Y   22253.91667824 -.00010880  00000-0 -18397-3 0  9995","CENTER_NAME":"EARTH","BSTAR":"-0.00018397000000","PERIOD":"92.910","MEAN_MOTION":"15.49890774","COUNTRY_CODE":"US","MEAN_ANOMALY":"30.0323","OBJECT_NAME":"STARLINK-3950","RA_OF_ASC_NODE":"164.8039","REF_FRAME":"TEME","TLE_LINE2":"2 53264  53.2175 164.8039 0001068  82.1534  30.0323 15.49890774  1303","TIME_SYSTEM":"UTC","CLASSIFICATION_TYPE":"U","SITE":"AFETR","OBJECT_ID":"2022-086Y","MEAN_MOTION_DDOT":"0.0000000000000","GP_ID":"212272506","ARG_OF_PERICENTER":"82.1534","LAUNCH_DATE":"2022-07-24","OBJECT_TYPE":"PAYLOAD","MEAN_MOTION_DOT":"-0.00010880","INCLINATION":"53.2175","ELEMENT_SET_NO":"999","APOAPSIS":"417.773","DECAY_DATE":null},{"APOAPSIS":"417.807","ELEMENT_SET_NO":"999","DECAY_DATE":null,"OBJECT_TYPE":"PAYLOAD","INCLINATION":"53.2175","MEAN_MOTION_DOT":"-0.00018657","LAUNCH_DATE":"2022-07-24","GP_ID":"212272200","ARG_OF_PERICENTER":"66.5226","MEAN_MOTION_DDOT":"0.0000000000000","TLE_LINE2":"2 53265  53.2175 164.8543 0001139  66.5226  49.0322 15.49895673  1309","TIME_SYSTEM":"UTC","REF_FRAME":"TEME","SITE":"AFETR","OBJECT_ID":"2022-086Z","CLASSIFICATION_TYPE":"U","RA_OF_ASC_NODE":"164.8543","OBJECT_NAME":"STARLINK-4097","MEAN_ANOMALY":"49.0322","COUNTRY_CODE":"US","MEAN_MOTION":"15.49895673","NORAD_CAT_ID":"53265","PERIOD":"92.909","BSTAR":"-0.00032142000000","CENTER_NAME":"EARTH","REV_AT_EPOCH":"130","TLE_LINE1":"1 53265U 22086Z   22253.91667824 -.00018657  00000-0 -32142-3 0  9990","EPHEMERIS_TYPE":"0","MEAN_ELEMENT_THEORY":"SGP4","RCS_SIZE":"LARGE","ECCENTRICITY":"0.00011390","SEMIMAJOR_AXIS":"6795.168","EPOCH":"2022-09-10T22:00:00.999936","PERIAPSIS":"416.259","FILE":"3567798"},{"REF_FRAME":"TEME","TIME_SYSTEM":"UTC","TLE_LINE2":"2 53266  53.2175 164.8415 0001065  76.4391  38.2737 15.49894019  1302","SITE":"AFETR","OBJECT_ID":"2022-086AA","CLASSIFICATION_TYPE":"U","LAUNCH_DATE":"2022-07-24","MEAN_MOTION_DDOT":"0.0000000000000","ARG_OF_PERICENTER":"76.4391","GP_ID":"212272859","OBJECT_TYPE":"PAYLOAD","MEAN_MOTION_DOT":"-0.00016069","INCLINATION":"53.2175","ELEMENT_SET_NO":"999","APOAPSIS":"417.762","DECAY_DATE":null,"EPOCH":"2022-09-10T22:00:00.999936","SEMIMAJOR_AXIS":"6795.173","PERIAPSIS":"416.314","FILE":"3567798","EPHEMERIS_TYPE":"0","RCS_SIZE":"LARGE","MEAN_ELEMENT_THEORY":"SGP4","ECCENTRICITY":"0.00010650","NORAD_CAT_ID":"53266","BSTAR":"-0.00027567000000","PERIOD":"92.910","TLE_LINE1":"1 53266U 22086AA  22253.91667824 -.00016069  00000-0 -27567-3 0  9991","REV_AT_EPOCH":"130","CENTER_NAME":"EARTH","COUNTRY_CODE":"US","MEAN_ANOMALY":"38.2737","RA_OF_ASC_NODE":"164.8415","OBJECT_NAME":"STARLINK-4058","MEAN_MOTION":"15.49894019"},{"RCS_SIZE":"LARGE","MEAN_ELEMENT_THEORY":"SGP4","ECCENTRICITY":"0.00011180","EPHEMERIS_TYPE":"0","PERIAPSIS":"416.268","FILE":"3567798","EPOCH":"2022-09-10T22:00:00.999936","SEMIMAJOR_AXIS":"6795.163","MEAN_ANOMALY":"41.1278","COUNTRY_CODE":"US","OBJECT_NAME":"STARLINK-4060","RA_OF_ASC_NODE":"164.8786","MEAN_MOTION":"15.49897393","PERIOD":"92.909","BSTAR":"-0.00036904000000","TLE_LINE1":"1 53267U 22086AB  22253.91667824 -.00021348  00000-0 -36904-3 0  9993","REV_AT_EPOCH":"130","CENTER_NAME":"EARTH","NORAD_CAT_ID":"53267","LAUNCH_DATE":"2022-07-24","MEAN_MOTION_DDOT":"0.0000000000000","GP_ID":"212272353","ARG_OF_PERICENTER":"76.4920","SITE":"AFETR","OBJECT_ID":"2022-086AB","CLASSIFICATION_TYPE":"U","REF_FRAME":"TEME","TIME_SYSTEM":"UTC","TLE_LINE2":"2 53267  53.2175 164.8786 0001118  76.4920  41.1278 15.49897393  1302","DECAY_DATE":null,"ELEMENT_SET_NO":"999","APOAPSIS":"417.788","MEAN_MOTION_DOT":"-0.00021348","INCLINATION":"53.2175","OBJECT_TYPE":"PAYLOAD"},{"ELEMENT_SET_NO":"999","APOAPSIS":"417.819","DECAY_DATE":null,"OBJECT_TYPE":"PAYLOAD","MEAN_MOTION_DOT":"-0.00021360","INCLINATION":"53.2175","MEAN_MOTION_DDOT":"0.0000000000000","GP_ID":"212272093","ARG_OF_PERICENTER":"67.8209","LAUNCH_DATE":"2022-07-24","REF_FRAME":"TEME","TLE_LINE2":"2 53268  53.2175 164.8665 0001164  67.8209  48.5758 15.49897402  1309","TIME_SYSTEM":"UTC","CLASSIFICATION_TYPE":"U","SITE":"AFETR","OBJECT_ID":"2022-086AC","MEAN_MOTION":"15.49897402","MEAN_ANOMALY":"48.5758","COUNTRY_CODE":"US","RA_OF_ASC_NODE":"164.8665","OBJECT_NAME":"STARLINK-4109","NORAD_CAT_ID":"53268","TLE_LINE1":"1 53268U 22086AC  22253.91667824 -.00021360  00000-0 -36925-3 0  9991","REV_AT_EPOCH":"130","CENTER_NAME":"EARTH","BSTAR":"-0.00036925000000","PERIOD":"92.909","EPHEMERIS_TYPE":"0","ECCENTRICITY":"0.00011640","MEAN_ELEMENT_THEORY":"SGP4","RCS_SIZE":"LARGE","EPOCH":"2022-09-10T22:00:00.999936","SEMIMAJOR_AXIS":"6795.163","FILE":"3567798","PERIAPSIS":"416.237"},{"EPHEMERIS_TYPE":"0","RCS_SIZE":"LARGE","MEAN_ELEMENT_THEORY":"SGP4","ECCENTRICITY":"0.00021030","SEMIMAJOR_AXIS":"6727.721","EPOCH":"2022-09-10T22:00:00.999936","PERIAPSIS":"348.171","FILE":"3567798","RA_OF_ASC_NODE":"163.9010","OBJECT_NAME":"STARLINK-4057","COUNTRY_CODE":"US","MEAN_ANOMALY":"164.7762","MEAN_MOTION":"15.73261259","NORAD_CAT_ID":"53269","BSTAR":"-0.00083805000000","PERIOD":"91.530","CENTER_NAME":"EARTH","REV_AT_EPOCH":"130","TLE_LINE1":"1 53269U 22086AD  22253.91667824 -.00116934  00000-0 -83805-3 0  9993","LAUNCH_DATE":"2022-07-24","GP_ID":"212271785","ARG_OF_PERICENTER":"26.5345","MEAN_MOTION_DDOT":"0.0000000000000","TLE_LINE2":"2 53269  53.2177 163.9010 0002103  26.5345 164.7762 15.73261259  1301","TIME_SYSTEM":"UTC","REF_FRAME":"TEME","SITE":"AFETR","OBJECT_ID":"2022-086AD","CLASSIFICATION_TYPE":"U","APOAPSIS":"351.000","ELEMENT_SET_NO":"999","DECAY_DATE":null,"OBJECT_TYPE":"PAYLOAD","INCLINATION":"53.2177","MEAN_MOTION_DOT":"-0.00116934"},{"CLASSIFICATION_TYPE":"U","SITE":"AFETR","OBJECT_ID":"2022-086AF","TLE_LINE2":"2 53271  53.2177 163.8978 0002497  22.1564 170.3274 15.73234840  1304","TIME_SYSTEM":"UTC","REF_FRAME":"TEME","ARG_OF_PERICENTER":"22.1564","GP_ID":"212272662","MEAN_MOTION_DDOT":"0.0000000000000","LAUNCH_DATE":"2022-07-24","INCLINATION":"53.2177","MEAN_MOTION_DOT":"-0.00098852","OBJECT_TYPE":"PAYLOAD","DECAY_DATE":null,"APOAPSIS":"351.341","ELEMENT_SET_NO":"999","FILE":"3567798","PERIAPSIS":"347.981","SEMIMAJOR_AXIS":"6727.796","EPOCH":"2022-09-10T22:00:00.999936","ECCENTRICITY":"0.00024970","MEAN_ELEMENT_THEORY":"SGP4","RCS_SIZE":"LARGE","EPHEMERIS_TYPE":"0","CENTER_NAME":"EARTH","REV_AT_EPOCH":"130","TLE_LINE1":"1 53271U 22086AF  22253.91667824 -.00098852  00000-0 -70700-3 0  9994","BSTAR":"-0.00070700000000","PERIOD":"91.531","NORAD_CAT_ID":"53271","MEAN_MOTION":"15.73234840","RA_OF_ASC_NODE":"163.8978","OBJECT_NAME":"STARLINK-4069","COUNTRY_CODE":"US","MEAN_ANOMALY":"170.3274"},{"ARG_OF_PERICENTER":"8.1230","GP_ID":"212271939","MEAN_MOTION_DDOT":"0.0000000000000","LAUNCH_DATE":"2022-07-24","CLASSIFICATION_TYPE":"U","OBJECT_ID":"2022-086AG","SITE":"AFETR","TLE_LINE2":"2 53272  53.2177 163.9007 0002815   8.1230 182.5730 15.73208001  1309","TIME_SYSTEM":"UTC","REF_FRAME":"TEME","DECAY_DATE":null,"APOAPSIS":"351.631","ELEMENT_SET_NO":"999","INCLINATION":"53.2177","MEAN_MOTION_DOT":"-0.00069842","OBJECT_TYPE":"PAYLOAD","ECCENTRICITY":"0.00028150","RCS_SIZE":"LARGE","MEAN_ELEMENT_THEORY":"SGP4","EPHEMERIS_TYPE":"0","FILE":"3567798","PERIAPSIS":"347.843","SEMIMAJOR_AXIS":"6727.872","EPOCH":"2022-09-10T22:00:00.999936","MEAN_MOTION":"15.73208001","RA_OF_ASC_NODE":"163.9007","OBJECT_NAME":"STARLINK-4122","MEAN_ANOMALY":"182.5730","COUNTRY_CODE":"US","CENTER_NAME":"EARTH","TLE_LINE1":"1 53272U 22086AG  22253.91667824 -.00069842  00000-0 -49704-3 0  9992","REV_AT_EPOCH":"130","PERIOD":"91.533","BSTAR":"-0.00049704000000","NORAD_CAT_ID":"53272"},{"ELEMENT_SET_NO":"999","APOAPSIS":"351.013","DECAY_DATE":null,"OBJECT_TYPE":"PAYLOAD","MEAN_MOTION_DOT":"0.00022724","INCLINATION":"53.2175","LAUNCH_DATE":"2022-07-24","MEAN_MOTION_DDOT":"0.0000000000000","ARG_OF_PERICENTER":"22.2779","GP_ID":"212272507","REF_FRAME":"TEME","TLE_LINE2":"2 53273  53.2175 163.8946 0001717  22.2779 171.3712 15.73165683  1308","TIME_SYSTEM":"UTC","SITE":"AFETR","OBJECT_ID":"2022-086AH","CLASSIFICATION_TYPE":"U","COUNTRY_CODE":"US","MEAN_ANOMALY":"171.3712","RA_OF_ASC_NODE":"163.8946","OBJECT_NAME":"STARLINK-4051","MEAN_MOTION":"15.73165683","NORAD_CAT_ID":"53273","PERIOD":"91.535","BSTAR":"0.00016613000000","REV_AT_EPOCH":"130","TLE_LINE1":"1 53273U 22086AH  22253.91667824  .00022724  00000-0  16613-3 0  9992","CENTER_NAME":"EARTH","EPHEMERIS_TYPE":"0","MEAN_ELEMENT_THEORY":"SGP4","RCS_SIZE":"LARGE","ECCENTRICITY":"0.00017170","EPOCH":"2022-09-10T22:00:00.999936","SEMIMAJOR_AXIS":"6727.993","PERIAPSIS":"348.703","FILE":"3567798"}];
